{
    "links": {
        "self": "http://www.neowsapp.com/rest/v1/neo/3843903?api_key=iIulBulltgU6a56xZRHN4H3l9WmuAYTsLGpBGhQ2"
    },
    "id": "3843903",
    "neo_reference_id": "3843903",
    "name": "(2019 SE1)",
    "designation": "2019 SE1",
    "nasa_jpl_url": "http://ssd.jpl.nasa.gov/sbdb.cgi?sstr=3843903",
    "absolute_magnitude_h": 26.0,
    "estimated_diameter": {
        "kilometers": {
            "estimated_diameter_min": 0.0167708462,
            "estimated_diameter_max": 0.0375007522
        },
        "meters": {
            "estimated_diameter_min": 16.7708462163,
            "estimated_diameter_max": 37.5007521798
        },
        "miles": {
            "estimated_diameter_min": 0.0104209175,
            "estimated_diameter_max": 0.0233018799
        },
        "feet": {
            "estimated_diameter_min": 55.0224631002,
            "estimated_diameter_max": 123.0339677816
        }
    },
    "is_potentially_hazardous_asteroid": false,
    "close_approach_data": [
        {
            "close_approach_date": "2016-09-28",
            "close_approach_date_full": "2016-Sep-28 02:05",
            "epoch_date_close_approach": 1475028300000,
            "relative_velocity": {
                "kilometers_per_second": "15.2997979662",
                "kilometers_per_hour": "55079.2726783301",
                "miles_per_hour": "34224.118070599"
            },
            "miss_distance": {
                "astronomical": "0.2692700459",
                "lunar": "104.7460478551",
                "kilometers": "40282225.321442233",
                "miles": "25030214.1482914954"
            },
            "orbiting_body": "Earth"
        },
        {
            "close_approach_date": "2019-09-20",
            "close_approach_date_full": "2019-Sep-20 01:58",
            "epoch_date_close_approach": 1568944680000,
            "relative_velocity": {
                "kilometers_per_second": "13.1875040786",
                "kilometers_per_hour": "47475.0146829942",
                "miles_per_hour": "29499.1278734416"
            },
            "miss_distance": {
                "astronomical": "0.0535002453",
                "lunar": "20.8115954217",
                "kilometers": "8003522.741357511",
                "miles": "4973158.4230592118"
            },
            "orbiting_body": "Earth"
        },
        {
            "close_approach_date": "2022-09-10",
            "close_approach_date_full": "2022-Sep-10 12:09",
            "epoch_date_close_approach": 1662811740000,
            "relative_velocity": {
                "kilometers_per_second": "15.0039982564",
                "kilometers_per_hour": "54014.3937231163",
                "miles_per_hour": "33562.4436997886"
            },
            "miss_distance": {
                "astronomical": "0.2811616753",
                "lunar": "109.3718916917",
                "kilometers": "42061187.750511611",
                "miles": "26135610.1438217918"
            },
            "orbiting_body": "Earth"
        },
        {
            "close_approach_date": "2149-10-01",
            "close_approach_date_full": "2149-Oct-01 01:57",
            "epoch_date_close_approach": 5672339820000,
            "relative_velocity": {
                "kilometers_per_second": "15.8910150007",
                "kilometers_per_hour": "57207.6540026554",
                "miles_per_hour": "35546.6114551499"
            },
            "miss_distance": {
                "astronomical": "0.3123654452",
                "lunar": "121.5101581828",
                "kilometers": "46729205.263521724",
                "miles": "29036181.7251148312"
            },
            "orbiting_body": "Earth"
        },
        {
            "close_approach_date": "2152-09-22",
            "close_approach_date_full": "2152-Sep-22 01:12",
            "epoch_date_close_approach": 5766253920000,
            "relative_velocity": {
                "kilometers_per_second": "13.2572485138",
                "kilometers_per_hour": "47726.0946495083",
                "miles_per_hour": "29655.1392004125"
            },
            "miss_distance": {
                "astronomical": "0.0635787453",
                "lunar": "24.7321319217",
                "kilometers": "9511244.874152511",
                "miles": "5910013.5138302118"
            },
            "orbiting_body": "Earth"
        }
    ],
    "orbital_data": {
        "orbit_id": "1",
        "orbit_determination_date": "2019-09-20 23:12:06",
        "first_observation_date": "2019-09-20",
        "last_observation_date": "2019-09-21",
        "data_arc_in_days": 1,
        "observations_used": 19,
        "orbit_uncertainty": "8",
        "minimum_orbit_intersection": ".0532235",
        "jupiter_tisserand_invariant": "4.901",
        "epoch_osculation": "2458747.5",
        "eccentricity": ".1851276004831508",
        "semi_major_axis": "1.297896746955391",
        "inclination": "24.63949360206626",
        "ascending_node_longitude": "356.9996831505408",
        "orbital_period": "540.0806811944094",
        "perihelion_distance": "1.057620236516652",
        "perihelion_argument": "359.779167574775",
        "aphelion_distance": "1.538173257394129",
        "perihelion_time": "2458746.463954169873",
        "mean_anomaly": ".690594038692271",
        "mean_motion": ".6665670751337486",
        "equinox": "J2000",
        "orbit_class": {
            "orbit_class_type": "AMO",
            "orbit_class_description": "Near-Earth asteroid orbits similar to that of 1221 Amor",
            "orbit_class_range": "1.017 AU < q (perihelion) < 1.3 AU"
        }
    },
    "is_sentry_object": false
}